IRIDIUM 57              
1 25273U 98019B   24302.08925716  .00001827  00000+0  62844-3 0  9999
2 25273  86.3962 242.4163 0002358  84.6094 275.5372 14.35519637391699
IRIDIUM 63              
1 25286U 98021B   24302.12934527  .00001579  00000+0  53578-3 0  9999
2 25286  86.4042 179.3904 0001985  78.2959 281.8461 14.36128408390802
IRIDIUM 69              
1 25319U 98026A   24302.15219704  .00002322  00000+0  72484-3 0  9991
2 25319  86.4042 193.3467 0004520  74.0818 286.0879 14.40445627389892
IRIDIUM 71              
1 25320U 98026B   24302.40230635  .00001814  00000+0  56190-3 0  9998
2 25320  86.4040 187.9825 0003913 106.6568 253.5061 14.40707200390463
IRIDIUM 73              
1 25344U 98032C   24302.28049105  .00002253  00000+0  56445-3 0  9998
2 25344  86.4418 145.2778 0002704  78.4695 281.6813 14.51045051397225
IRIDIUM 82              
1 25467U 98051A   24302.05404291  .00046649  00000+0  19681-2 0  9998
2 25467  86.3765 222.4176 0117303  89.2630 272.2050 15.16956023388586
